[
    {
        "Altitude(m)": 622205.859338759,
        "Argument of Periapsis(deg)": 0.0,
        "Eccentricity": 0.0,
        "Inclination(deg)": 60.0,
        "Latitude(deg)": -52.16241291572487,
        "Longitude(deg)": 17.700543327110427,
        "Mean Anomaly(deg)": -114.54550000000008,
        "RAAN(deg)": 250.00000000000003,
        "Satellite Name": "Test1 1115",
        "Satellite Number": 1115,
        "Semi-Major Axis(m)": 6980739.136638005,
        "Time(s)": 0
    },
    {
        "Altitude(m)": 622344.7653352845,
        "Argument of Periapsis(deg)": 0.00010418945913296404,
        "Eccentricity": 0.0,
        "Inclination(deg)": 60.0,
        "Latitude(deg)": -52.51999093011738,
        "Longitude(deg)": 18.481757213841313,
        "Mean Anomaly(deg)": -113.9253938545382,
        "RAAN(deg)": 249.99957995086027,
        "Satellite Name": "Test1 1115",
        "Satellite Number": 1115,
        "Semi-Major Axis(m)": 6980739.136638005,
        "Time(s)": 10
    }
]